{
  "type": "FeatureCollection",
  "features": [
    {
      "type": "Feature",
      "properties": {
        "norad_id": 34859,
        "name": "COSMOS 2251 DEB",
        "group": "cosmos-2251-debris",
        "lat": 64.60355204167807,
        "lon": 37.007594149468126,
        "alt_km": 524.2834227535286,
        "timestamp": "2025-12-02T23:34:15.912527+00:00",
        "meta_object_name": "COSMOS 2251 DEB",
        "meta_object_id": "1993-036ACD",
        "meta_epoch": "2025-12-02T12:49:14.377152",
        "meta_mean_motion": 15.12082305,
        "meta_eccentricity": 0.000464,
        "meta_inclination": 74.0336,
        "meta_ra_of_asc_node": 0.8454,
        "meta_arg_of_pericenter": 316.5939,
        "meta_mean_anomaly": 196.0454,
        "meta_ephemeris_type": 0,
        "meta_classification_type": "U",
        "meta_norad_cat_id": 34859,
        "meta_element_set_no": 999,
        "meta_rev_at_epoch": 88204,
        "meta_bstar": 0.0051652,
        "meta_mean_motion_dot": 0.00090024,
        "meta_mean_motion_ddot": 0,
        "tle_line1": "1 34859U 93036ACD 25336.53419418  .00090024  00000+0  51652-2 0  9999",
        "tle_line2": "2 34859  74.0336   0.8454 0004640 316.5939 196.0454 15.12082305882043"
      },
      "geometry": {
        "type": "Point",
        "coordinates": [
          37.007594149468126,
          64.60355204167807
        ]
      }
    },
    {
      "type": "Feature",
      "properties": {
        "norad_id": 34861,
        "name": "COSMOS 2251 DEB",
        "group": "cosmos-2251-debris",
        "lat": 15.51663555105848,
        "lon": 75.33244844464403,
        "alt_km": 561.0245166036148,
        "timestamp": "2025-12-02T23:34:15.912538+00:00",
        "meta_object_name": "COSMOS 2251 DEB",
        "meta_object_id": "1993-036ACF",
        "meta_epoch": "2025-12-02T07:45:26.512992",
        "meta_mean_motion": 15.01510655,
        "meta_eccentricity": 0.0006055,
        "meta_inclination": 74.0189,
        "meta_ra_of_asc_node": 72.1119,
        "meta_arg_of_pericenter": 86.6939,
        "meta_mean_anomaly": 329.4268,
        "meta_ephemeris_type": 0,
        "meta_classification_type": "U",
        "meta_norad_cat_id": 34861,
        "meta_element_set_no": 999,
        "meta_rev_at_epoch": 87936,
        "meta_bstar": 0.0029775,
        "meta_mean_motion_dot": 0.00038722,
        "meta_mean_motion_ddot": 0,
        "tle_line1": "1 34861U 93036ACF 25336.32322353  .00038722  00000+0  29775-2 0  9998",
        "tle_line2": "2 34861  74.0189  72.1119 0006055  86.6939 329.4268 15.01510655879367"
      },
      "geometry": {
        "type": "Point",
        "coordinates": [
          75.33244844464403,
          15.51663555105848
        ]
      }
    },
    {
      "type": "Feature",
      "properties": {
        "norad_id": 34874,
        "name": "COSMOS 2251 DEB",
        "group": "cosmos-2251-debris",
        "lat": 57.752349771464004,
        "lon": -115.29457991338168,
        "alt_km": 728.2140559943036,
        "timestamp": "2025-12-02T23:34:15.912548+00:00",
        "meta_object_name": "COSMOS 2251 DEB",
        "meta_object_id": "1993-036ACM",
        "meta_epoch": "2025-12-02T02:06:02.983392",
        "meta_mean_motion": 14.36214556,
        "meta_eccentricity": 0.00516078,
        "meta_inclination": 74.0386,
        "meta_ra_of_asc_node": 93.3251,
        "meta_arg_of_pericenter": 121.9349,
        "meta_mean_anomaly": 52.8918,
        "meta_ephemeris_type": 0,
        "meta_classification_type": "U",
        "meta_norad_cat_id": 34874,
        "meta_element_set_no": 999,
        "meta_rev_at_epoch": 86891,
        "meta_bstar": 0.001217276,
        "meta_mean_motion_dot": 3.583e-05,
        "meta_mean_motion_ddot": 0,
        "tle_line1": "1 34874U 93036ACM 25336.08753453  .00003583  00000+0  12173-2 0  9995",
        "tle_line2": "2 34874  74.0386  93.3251 0051607 121.9349  52.8918 14.36214556868919"
      },
      "geometry": {
        "type": "Point",
        "coordinates": [
          -115.29457991338168,
          57.752349771464004
        ]
      }
    },
    {
      "type": "Feature",
      "properties": {
        "norad_id": 34875,
        "name": "COSMOS 2251 DEB",
        "group": "cosmos-2251-debris",
        "lat": 73.9119579145869,
        "lon": -100.7301248617827,
        "alt_km": 731.454867231394,
        "timestamp": "2025-12-02T23:34:15.912558+00:00",
        "meta_object_name": "COSMOS 2251 DEB",
        "meta_object_id": "1993-036ACN",
        "meta_epoch": "2025-12-01T22:37:18.281280",
        "meta_mean_motion": 14.48867328,
        "meta_eccentricity": 0.00159352,
        "meta_inclination": 74.0431,
        "meta_ra_of_asc_node": 178.4426,
        "meta_arg_of_pericenter": 302.857,
        "meta_mean_anomaly": 125.0088,
        "meta_ephemeris_type": 0,
        "meta_classification_type": "U",
        "meta_norad_cat_id": 34875,
        "meta_element_set_no": 999,
        "meta_rev_at_epoch": 87599,
        "meta_bstar": 0.00044979225,
        "meta_mean_motion_dot": 1.677e-05,
        "meta_mean_motion_ddot": 0,
        "tle_line1": "1 34875U 93036ACN 25335.94257270  .00001677  00000+0  44979-3 0  9998",
        "tle_line2": "2 34875  74.0431 178.4426 0015935 302.8570 125.0088 14.48867328875991"
      },
      "geometry": {
        "type": "Point",
        "coordinates": [
          -100.7301248617827,
          73.9119579145869
        ]
      }
    },
    {
      "type": "Feature",
      "properties": {
        "norad_id": 34878,
        "name": "COSMOS 2251 DEB",
        "group": "cosmos-2251-debris",
        "lat": -66.69383268372432,
        "lon": 20.920380193468255,
        "alt_km": 1257.9945290522746,
        "timestamp": "2025-12-02T23:34:15.912569+00:00",
        "meta_object_name": "COSMOS 2251 DEB",
        "meta_object_id": "1993-036ACR",
        "meta_epoch": "2025-12-01T14:17:05.154720",
        "meta_mean_motion": 13.44171436,
        "meta_eccentricity": 0.04352412,
        "meta_inclination": 73.9642,
        "meta_ra_of_asc_node": 65.0008,
        "meta_arg_of_pericenter": 50.7211,
        "meta_mean_anomaly": 11.8748,
        "meta_ephemeris_type": 0,
        "meta_classification_type": "U",
        "meta_norad_cat_id": 34878,
        "meta_element_set_no": 999,
        "meta_rev_at_epoch": 81123,
        "meta_bstar": 0.00042153975,
        "meta_mean_motion_dot": 4.13e-06,
        "meta_mean_motion_ddot": 0,
        "tle_line1": "1 34878U 93036ACR 25335.59519855  .00000413  00000+0  42154-3 0  9992",
        "tle_line2": "2 34878  73.9642  65.0008 0435241  50.7211  11.8748 13.44171436811235"
      },
      "geometry": {
        "type": "Point",
        "coordinates": [
          20.920380193468255,
          -66.69383268372432
        ]
      }
    },
    {
      "type": "Feature",
      "properties": {
        "norad_id": 34882,
        "name": "COSMOS 2251 DEB",
        "group": "cosmos-2251-debris",
        "lat": -51.860443054363856,
        "lon": -137.11810757500598,
        "alt_km": 672.9583358978771,
        "timestamp": "2025-12-02T23:34:15.912579+00:00",
        "meta_object_name": "COSMOS 2251 DEB",
        "meta_object_id": "1993-036ACV",
        "meta_epoch": "2025-12-02T04:06:20.931840",
        "meta_mean_motion": 14.61559907,
        "meta_eccentricity": 0.00823687,
        "meta_inclination": 74.0469,
        "meta_ra_of_asc_node": 245.796,
        "meta_arg_of_pericenter": 15.4065,
        "meta_mean_anomaly": 344.9579,
        "meta_ephemeris_type": 0,
        "meta_classification_type": "U",
        "meta_norad_cat_id": 34882,
        "meta_element_set_no": 999,
        "meta_rev_at_epoch": 88370,
        "meta_bstar": 0.0002608608,
        "meta_mean_motion_dot": 1.327e-05,
        "meta_mean_motion_ddot": 0,
        "tle_line1": "1 34882U 93036ACV 25336.17107560  .00001327  00000+0  26086-3 0  9999",
        "tle_line2": "2 34882  74.0469 245.7960 0082368  15.4065 344.9579 14.61559907883702"
      },
      "geometry": {
        "type": "Point",
        "coordinates": [
          -137.11810757500598,
          -51.860443054363856
        ]
      }
    },
    {
      "type": "Feature",
      "properties": {
        "norad_id": 34883,
        "name": "COSMOS 2251 DEB",
        "group": "cosmos-2251-debris",
        "lat": -1.4190440869762446,
        "lon": 80.49589006120115,
        "alt_km": 726.133927976678,
        "timestamp": "2025-12-02T23:34:15.912589+00:00",
        "meta_object_name": "COSMOS 2251 DEB",
        "meta_object_id": "1993-036ACW",
        "meta_epoch": "2025-12-02T07:01:45.378912",
        "meta_mean_motion": 14.50855813,
        "meta_eccentricity": 0.0095087,
        "meta_inclination": 74.1989,
        "meta_ra_of_asc_node": 82.1807,
        "meta_arg_of_pericenter": 269.0974,
        "meta_mean_anomaly": 89.9292,
        "meta_ephemeris_type": 0,
        "meta_classification_type": "U",
        "meta_norad_cat_id": 34883,
        "meta_element_set_no": 999,
        "meta_rev_at_epoch": 86288,
        "meta_bstar": 0.0060298,
        "meta_mean_motion_dot": 0.00025271,
        "meta_mean_motion_ddot": 0,
        "tle_line1": "1 34883U 93036ACW 25336.29288633  .00025271  00000+0  60298-2 0  9990",
        "tle_line2": "2 34883  74.1989  82.1807 0095087 269.0974  89.9292 14.50855813862889"
      },
      "geometry": {
        "type": "Point",
        "coordinates": [
          80.49589006120115,
          -1.4190440869762446
        ]
      }
    }
  ]
}